QIANFAN-73              
1 63159U 25046A   25362.45516322  .00000202  00000+0  29332-3 0  9992
2 63159  88.9776 318.3965 0016994  78.4981 281.8078 13.50981426 49536
QIANFAN-74              
1 63160U 25046B   25362.43856584  .00000209  00000+0  30534-3 0  9992
2 63160  88.9776 318.2870 0001995  72.4762 287.6607 13.50978303 49596
QIANFAN-75              
1 63161U 25046C   25362.49988646  .00000240  00000+0  35326-3 0  9993
2 63161  88.9778 318.5145 0018140  80.9186 279.4017 13.50983989 49478
QIANFAN-76              
1 63162U 25046D   25362.49653431  .00000185  00000+0  26704-3 0  9993
2 63162  88.9776 318.4954 0015686  81.3575 278.9352 13.50983690 49489
QIANFAN-77              
1 63163U 25046E   25362.45375692  .00000571  00000+0  40624-3 0  9996
2 63163  88.9777 316.3780 0016453  37.4308 322.8011 13.96101025 50649
QIANFAN-78              
1 63164U 25046F   25362.46336443  .00000229  00000+0  33607-3 0  9992
2 63164  88.9776 318.3627 0017047  83.5095 276.7997 13.50981995 49556
QIANFAN-79              
1 63165U 25046G   25362.49200549  .00000225  00000+0  32880-3 0  9991
2 63165  88.9779 318.4678 0016754  81.8554 278.4496 13.50983802 49509
QIANFAN-80              
1 63166U 25046H   25362.43448433  .00000243  00000+0  35795-3 0  9990
2 63166  88.9777 318.1803 0015698  85.6842 274.6103 13.50981838 49659
